CCSDS_OMM_VERS = 2.0
CREATION_DATE  = 
ORIGINATOR     = 

OBJECT_NAME    = STARLINK-36179
OBJECT_ID      = 2025-299T
CENTER_NAME    = EARTH
REF_FRAME      = TEME
TIME_SYSTEM    = UTC
MEAN_ELEMENT_THEORY = SGP/SGP4

EPOCH          = 2026-01-11T18:00:36.436608
MEAN_MOTION    = 15.40720972
ECCENTRICITY   = .00015816
INCLINATION    = 43.0011
RA_OF_ASC_NODE = 137.0048
ARG_OF_PERICENTER = 272.7490
MEAN_ANOMALY   = 87.3186

EPHEMERIS_TYPE = 0
CLASSIFICATION_TYPE = U
NORAD_CAT_ID   = 67119
ELEMENT_SET_NO = 999
REV_AT_EPOCH   = 433
BSTAR          = .89322772E-3
MEAN_MOTION_DOT = .37217E-3
MEAN_MOTION_DDOT = 0

CCSDS_OMM_VERS = 2.0
CREATION_DATE  = 
ORIGINATOR     = 

OBJECT_NAME    = STARLINK-36217
OBJECT_ID      = 2025-299U
CENTER_NAME    = EARTH
REF_FRAME      = TEME
TIME_SYSTEM    = UTC
MEAN_ELEMENT_THEORY = SGP/SGP4

EPOCH          = 2026-01-11T22:00:00.999936
MEAN_MOTION    = 15.45050572
ECCENTRICITY   = .00016139
INCLINATION    = 42.9996
RA_OF_ASC_NODE = 135.4319
ARG_OF_PERICENTER = 284.3751
MEAN_ANOMALY   = 172.5717

EPHEMERIS_TYPE = 0
CLASSIFICATION_TYPE = U
NORAD_CAT_ID   = 67120
ELEMENT_SET_NO = 999
REV_AT_EPOCH   = 565
BSTAR          = -.4752026E-1
MEAN_MOTION_DOT = -.2044353E-1
MEAN_MOTION_DDOT = 0

CCSDS_OMM_VERS = 2.0
CREATION_DATE  = 
ORIGINATOR     = 

OBJECT_NAME    = STARLINK-36124
OBJECT_ID      = 2025-299V
CENTER_NAME    = EARTH
REF_FRAME      = TEME
TIME_SYSTEM    = UTC
MEAN_ELEMENT_THEORY = SGP/SGP4

EPOCH          = 2026-01-11T22:00:00.999936
MEAN_MOTION    = 15.40655923
ECCENTRICITY   = .00014421
INCLINATION    = 42.9999
RA_OF_ASC_NODE = 135.7140
ARG_OF_PERICENTER = 267.7926
MEAN_ANOMALY   = 72.3642

EPHEMERIS_TYPE = 0
CLASSIFICATION_TYPE = U
NORAD_CAT_ID   = 67121
ELEMENT_SET_NO = 999
REV_AT_EPOCH   = 565
BSTAR          = .73241638E-3
MEAN_MOTION_DOT = .30368E-3
MEAN_MOTION_DDOT = 0

CCSDS_OMM_VERS = 2.0
CREATION_DATE  = 
ORIGINATOR     = 

OBJECT_NAME    = STARLINK-36188
OBJECT_ID      = 2025-299W
CENTER_NAME    = EARTH
REF_FRAME      = TEME
TIME_SYSTEM    = UTC
MEAN_ELEMENT_THEORY = SGP/SGP4

EPOCH          = 2026-01-11T22:00:00.999936
MEAN_MOTION    = 15.40645354
ECCENTRICITY   = .00015909
INCLINATION    = 43.0000
RA_OF_ASC_NODE = 135.7754
ARG_OF_PERICENTER = 267.0970
MEAN_ANOMALY   = 48.1700

EPHEMERIS_TYPE = 0
CLASSIFICATION_TYPE = U
NORAD_CAT_ID   = 67122
ELEMENT_SET_NO = 999
REV_AT_EPOCH   = 565
BSTAR          = .11463924E-2
MEAN_MOTION_DOT = .47798E-3
MEAN_MOTION_DDOT = 0

CCSDS_OMM_VERS = 2.0
CREATION_DATE  = 
ORIGINATOR     = 

OBJECT_NAME    = STARLINK-36151
OBJECT_ID      = 2025-299X
CENTER_NAME    = EARTH
REF_FRAME      = TEME
TIME_SYSTEM    = UTC
MEAN_ELEMENT_THEORY = SGP/SGP4

EPOCH          = 2026-01-11T16:20:48.180480
MEAN_MOTION    = 15.40725531
ECCENTRICITY   = .00019338
INCLINATION    = 43.0011
RA_OF_ASC_NODE = 137.3450
ARG_OF_PERICENTER = 272.6716
MEAN_ANOMALY   = 87.3919

EPHEMERIS_TYPE = 0
CLASSIFICATION_TYPE = U
NORAD_CAT_ID   = 67123
ELEMENT_SET_NO = 999
REV_AT_EPOCH   = 432
BSTAR          = .16126539E-2
MEAN_MOTION_DOT = .6772E-3
MEAN_MOTION_DDOT = 0

CCSDS_OMM_VERS = 2.0
CREATION_DATE  = 
ORIGINATOR     = 

OBJECT_NAME    = STARLINK-36195
OBJECT_ID      = 2025-299Y
CENTER_NAME    = EARTH
REF_FRAME      = TEME
TIME_SYSTEM    = UTC
MEAN_ELEMENT_THEORY = SGP/SGP4

EPOCH          = 2026-01-11T17:38:01.586976
MEAN_MOTION    = 15.40714630
ECCENTRICITY   = .00010495
INCLINATION    = 42.9970
RA_OF_ASC_NODE = 136.8831
ARG_OF_PERICENTER = 232.0684
MEAN_ANOMALY   = 128.0078

EPHEMERIS_TYPE = 0
CLASSIFICATION_TYPE = U
NORAD_CAT_ID   = 67124
ELEMENT_SET_NO = 999
REV_AT_EPOCH   = 433
BSTAR          = .11196752E-2
MEAN_MOTION_DOT = .46778E-3
MEAN_MOTION_DDOT = 0

CCSDS_OMM_VERS = 2.0
CREATION_DATE  = 
ORIGINATOR     = 

OBJECT_NAME    = STARLINK-36219
OBJECT_ID      = 2025-299Z
CENTER_NAME    = EARTH
REF_FRAME      = TEME
TIME_SYSTEM    = UTC
MEAN_ELEMENT_THEORY = SGP/SGP4

EPOCH          = 2026-01-11T22:00:00.999936
MEAN_MOTION    = 15.40664001
ECCENTRICITY   = .00014353
INCLINATION    = 42.9998
RA_OF_ASC_NODE = 135.6536
ARG_OF_PERICENTER = 281.3005
MEAN_ANOMALY   = 83.6069

EPHEMERIS_TYPE = 0
CLASSIFICATION_TYPE = U
NORAD_CAT_ID   = 67125
ELEMENT_SET_NO = 999
REV_AT_EPOCH   = 565
BSTAR          = .83214351E-3
MEAN_MOTION_DOT = .34573E-3
MEAN_MOTION_DDOT = 0

CCSDS_OMM_VERS = 2.0
CREATION_DATE  = 
ORIGINATOR     = 

OBJECT_NAME    = STARLINK-36223
OBJECT_ID      = 2025-299AA
CENTER_NAME    = EARTH
REF_FRAME      = TEME
TIME_SYSTEM    = UTC
MEAN_ELEMENT_THEORY = SGP/SGP4

EPOCH          = 2026-01-11T22:00:00.999936
MEAN_MOTION    = 15.40651995
ECCENTRICITY   = .0001467
INCLINATION    = 42.9995
RA_OF_ASC_NODE = 135.5931
ARG_OF_PERICENTER = 281.5386
MEAN_ANOMALY   = 108.3691

EPHEMERIS_TYPE = 0
CLASSIFICATION_TYPE = U
NORAD_CAT_ID   = 67126
ELEMENT_SET_NO = 999
REV_AT_EPOCH   = 565
BSTAR          = .94533598E-3
MEAN_MOTION_DOT = .39326E-3
MEAN_MOTION_DDOT = 0

CCSDS_OMM_VERS = 2.0
CREATION_DATE  = 
ORIGINATOR     = 

OBJECT_NAME    = STARLINK-36164
OBJECT_ID      = 2025-299AB
CENTER_NAME    = EARTH
REF_FRAME      = TEME
TIME_SYSTEM    = UTC
MEAN_ELEMENT_THEORY = SGP/SGP4

EPOCH          = 2026-01-11T22:00:00.999936
MEAN_MOTION    = 15.40679905
ECCENTRICITY   = .00009793
INCLINATION    = 42.9993
RA_OF_ASC_NODE = 135.5019
ARG_OF_PERICENTER = 290.3413
MEAN_ANOMALY   = 136.7579

EPHEMERIS_TYPE = 0
CLASSIFICATION_TYPE = U
NORAD_CAT_ID   = 67127
ELEMENT_SET_NO = 999
REV_AT_EPOCH   = 565
BSTAR          = .10874422E-2
MEAN_MOTION_DOT = .45361E-3
MEAN_MOTION_DDOT = 0

CCSDS_OMM_VERS = 2.0
CREATION_DATE  = 
ORIGINATOR     = 

OBJECT_NAME    = STARLINK-35685
OBJECT_ID      = 2025-299AC
CENTER_NAME    = EARTH
REF_FRAME      = TEME
TIME_SYSTEM    = UTC
MEAN_ELEMENT_THEORY = SGP/SGP4

EPOCH          = 2026-01-11T16:14:20.912352
MEAN_MOTION    = 15.40738308
ECCENTRICITY   = .00023912
INCLINATION    = 43.0005
RA_OF_ASC_NODE = 137.3069
ARG_OF_PERICENTER = 287.0218
MEAN_ANOMALY   = 73.0377

EPHEMERIS_TYPE = 0
CLASSIFICATION_TYPE = U
NORAD_CAT_ID   = 67128
ELEMENT_SET_NO = 999
REV_AT_EPOCH   = 432
BSTAR          = .5579468E-3
MEAN_MOTION_DOT = .23104E-3
MEAN_MOTION_DDOT = 0

CCSDS_OMM_VERS = 2.0
CREATION_DATE  = 
ORIGINATOR     = 

OBJECT_NAME    = STARLINK-36214
OBJECT_ID      = 2025-299AD
CENTER_NAME    = EARTH
REF_FRAME      = TEME
TIME_SYSTEM    = UTC
MEAN_ELEMENT_THEORY = SGP/SGP4

EPOCH          = 2026-01-11T22:00:00.999936
MEAN_MOTION    = 15.40893686
ECCENTRICITY   = .0001864
INCLINATION    = 42.9996
RA_OF_ASC_NODE = 135.4414
ARG_OF_PERICENTER = 271.9311
MEAN_ANOMALY   = 180.0574

EPHEMERIS_TYPE = 0
CLASSIFICATION_TYPE = U
NORAD_CAT_ID   = 67129
ELEMENT_SET_NO = 999
REV_AT_EPOCH   = 565
BSTAR          = -.81500069E-2
MEAN_MOTION_DOT = -.328636E-2
MEAN_MOTION_DDOT = 0

CCSDS_OMM_VERS = 2.0
CREATION_DATE  = 
ORIGINATOR     = 

OBJECT_NAME    = STARLINK-36194
OBJECT_ID      = 2025-299AE
CENTER_NAME    = EARTH
REF_FRAME      = TEME
TIME_SYSTEM    = UTC
MEAN_ELEMENT_THEORY = SGP/SGP4

EPOCH          = 2026-01-11T22:00:00.999936
MEAN_MOTION    = 15.40667395
ECCENTRICITY   = .00013915
INCLINATION    = 42.9997
RA_OF_ASC_NODE = 135.6242
ARG_OF_PERICENTER = 294.1312
MEAN_ANOMALY   = 83.3147

EPHEMERIS_TYPE = 0
CLASSIFICATION_TYPE = U
NORAD_CAT_ID   = 67130
ELEMENT_SET_NO = 999
REV_AT_EPOCH   = 566
BSTAR          = .82377373E-3
MEAN_MOTION_DOT = .34225E-3
MEAN_MOTION_DDOT = 0

