STARLINK-36179          
1 67119U 25299T   26011.75042172  .00037217  00000+0  89323-3 0  9996
2 67119  43.0011 137.0048 0001581 272.7490  87.3186 15.40720972  4334
STARLINK-36217          
1 67120U 25299U   26011.91667824 -.02044353  00000+0 -47520-1 0  9997
2 67120  42.9996 135.4319 0001613 284.3751 172.5717 15.45050572  5654
STARLINK-36124          
1 67121U 25299V   26011.91667824  .00030368  00000+0  73242-3 0  9997
2 67121  42.9999 135.7140 0001442 267.7926  72.3642 15.40655923  5652
STARLINK-36188          
1 67122U 25299W   26011.91667824  .00047798  00000+0  11464-2 0  9990
2 67122  43.0000 135.7754 0001590 267.0970  48.1700 15.40645354  5658
STARLINK-36151          
1 67123U 25299X   26011.68111320  .00067720  00000+0  16127-2 0  9998
2 67123  43.0011 137.3450 0001933 272.6716  87.3919 15.40725531  4329
STARLINK-36195          
1 67124U 25299Y   26011.73474059  .00046778  00000+0  11197-2 0  9998
2 67124  42.9970 136.8831 0001049 232.0684 128.0078 15.40714630  4339
STARLINK-36219          
1 67125U 25299Z   26011.91667824  .00034573  00000+0  83214-3 0  9993
2 67125  42.9998 135.6536 0001435 281.3005  83.6069 15.40664001  5650
STARLINK-36223          
1 67126U 25299AA  26011.91667824  .00039326  00000+0  94534-3 0  9992
2 67126  42.9995 135.5931 0001467 281.5386 108.3691 15.40651995  5659
STARLINK-36164          
1 67127U 25299AB  26011.91667824  .00045361  00000+0  10874-2 0  9993
2 67127  42.9993 135.5019 0000979 290.3413 136.7579 15.40679905  5652
STARLINK-35685          
1 67128U 25299AC  26011.67663093  .00023104  00000+0  55795-3 0  9994
2 67128  43.0005 137.3069 0002391 287.0218  73.0377 15.40738308  4325
STARLINK-36214          
1 67129U 25299AD  26011.91667824 -.00328636  00000+0 -81500-2 0  9990
2 67129  42.9996 135.4414 0001864 271.9311 180.0574 15.40893686  5652
STARLINK-36194          
1 67130U 25299AE  26011.91667824  .00034225  00000+0  82377-3 0  9992
2 67130  42.9997 135.6242 0001391 294.1312  83.3147 15.40667395  5667
